[{"OBJECT_NAME":"STARLINK-5636","OBJECT_ID":"2023-015F","EPOCH":"2026-03-09T20:02:14.592768","MEAN_MOTION":15.03547663,"ECCENTRICITY":0.00011268,"INCLINATION":43.0038,"RA_OF_ASC_NODE":325.386,"ARG_OF_PERICENTER":279.1207,"MEAN_ANOMALY":80.9509,"EPHEMERIS_TYPE":0,"CLASSIFICATION_TYPE":"U","NORAD_CAT_ID":55454,"ELEMENT_SET_NO":999,"REV_AT_EPOCH":17077,"BSTAR":0.0086325638,"MEAN_MOTION_DOT":0.00121683,"MEAN_MOTION_DDOT":0},{"OBJECT_NAME":"CZ-4C R\/B","OBJECT_ID":"2018-043B","EPOCH":"2026-03-09T16:58:49.840320","MEAN_MOTION":14.86896347,"ECCENTRICITY":0.00868429,"INCLINATION":98.1687,"RA_OF_ASC_NODE":134.0913,"ARG_OF_PERICENTER":153.5979,"MEAN_ANOMALY":206.9701,"EPHEMERIS_TYPE":0,"CLASSIFICATION_TYPE":"U","NORAD_CAT_ID":43462,"ELEMENT_SET_NO":999,"REV_AT_EPOCH":42398,"BSTAR":0.00015965796,"MEAN_MOTION_DOT":1.463e-5,"MEAN_MOTION_DDOT":0}]
